CUTE-1 (CO-55)          
1 27844U 03031E   26178.85535065  .00000274  00000+0  13740-3 0  9993
2 27844  98.6736 187.2801 0010185 148.1888 211.9908 14.24341870193193
CUBESAT XI-IV (CO-57)   
1 27848U 03031J   26178.56803147  .00000234  00000+0  12175-3 0  9991
2 27848  98.6767 186.7007 0009661 166.6702 193.4734 14.23626048192855
CUBESAT XI-V            
1 28895U 05043F   26178.39064754  .00001463  00000+0  23760-3 0  9990
2 28895  98.2993 334.2271 0014350 168.3542 191.8000 14.72657931103253
CUTE-1.7+APD II (CO-65) 
1 32785U 08021C   26178.92124602  .00004615  00000+0  29155-3 0  9996
2 32785  97.8271 160.5636 0008655   5.1197 355.0118 15.09550491986819
CANX-2                  
1 32790U 08021H   26178.85501542  .00003309  00000+0  23316-3 0  9998
2 32790  97.8632 158.8406 0010640  18.9286 341.2334 15.05691418986413
SEEDS II (CO-66)        
1 32791U 08021J   26178.97154073  .00017585  00000+0  55169-3 0  9997
2 32791  97.7514 177.3863 0000745 205.3890 154.7314 15.33110926988949
SWISSCUBE               
1 35932U 09051B   26178.97854909  .00000952  00000+0  19747-3 0  9998
2 35932  98.4028  87.0546 0006746 167.8214 192.3151 14.62500860890738
BEESAT-1                
1 35933U 09051C   26178.71979853  .00000772  00000+0  16466-3 0  9992
2 35933  98.3956  86.4047 0004926 179.9707 180.1494 14.61736125890724
ITUPSAT1                
1 35935U 09051E   26178.71991485  .00000704  00000+0  15534-3 0  9999
2 35935  98.4041  85.5856 0006821 196.6461 163.4516 14.60455093890279
TISAT 1                 
1 36799U 10035E   26178.82963927  .00019797  00000+0  64049-3 0  9991
2 36799  98.0705 126.3256 0002853 149.9373 210.2031 15.32103025869334
AEROCUBE 4.5A           
1 38767U 12048K   26178.83388465  .01245472  10371-2  11636-2 0  9993
2 38767  64.6168 347.5165 0018554 257.1815 102.7282 16.11658829374369
STRAND-1                
1 39090U 13009E   26178.77774544  .00000277  00000+0  10736-3 0  9998
2 39090  98.3924 358.7515 0008324 191.3030 168.7972 14.37169285698588
BRITE-AUSTRIA           
1 39091U 13009F   26178.93450595  .00000168  00000+0  71644-4 0  9999
2 39091  98.3998 358.1043 0009685 201.7104 158.3673 14.36546103698590
NEE-01 PEGASO           
1 39151U 13018B   26178.38105112  .00002352  00000+0  22774-3 0  9993
2 39151  98.1232 322.8689 0013540 127.6864 232.5585 14.93710269712227
POPACS 2                
1 39269U 13055E   26178.84496017  .00014190  00000+0  23780-3 0  9993
2 39269  80.9911 131.9916 0416383 159.5578 202.2879 14.91491516664809
POPACS 3                
1 39270U 13055F   26178.83800771  .00010393  00000+0  24510-3 0  9993
2 39270  81.0001 217.6383 0551028  37.5728 326.2660 14.56315435640109
ZACUBE-1 (TSHEPISOSAT)  
1 39417U 13066B   26178.93868365  .00002961  00000+0  23110-3 0  9999
2 39417  97.8046 141.3307 0042300 211.1560 148.7156 15.01245243682346
WNISAT-1                
1 39423U 13066H   26178.36775341  .00001156  00000+0  21840-3 0  9997
2 39423  97.7211 326.8020 0162599 199.3623 160.1355 14.58081618668212
TRITON-1                
1 39427U 13066M   26178.89798249  .00001959  00000+0  23870-3 0  9997
2 39427  97.8242  88.4615 0089252 198.5093 161.2867 14.81738825675671
GOMX-1                  
1 39430U 13066Q   26178.94454054  .00002280  00000+0  34545-3 0  9999
2 39430  97.6483  18.7286 0129765  43.4002 317.7334 14.69497612671497
CUBEBUG-2 (LO-74)       
1 39440U 13066AA  26178.84762940  .00004363  00000+0  40353-3 0  9993
2 39440  97.8904 127.8712 0057308 353.7798   6.2703 14.93846491678583
NEE-02 KRYSAOR          
1 39441U 13066AB  26178.77635869  .00002746  00000+0  30307-3 0  9996
2 39441  97.8894 117.9155 0067040  36.1588 324.4133 14.86664864677772
FUNCUBE-1 (AO-73)       
1 39444U 13066AE  26178.86132907  .00006926  00000+0  42818-3 0  9998
2 39444  97.8273 150.5306 0036745 164.6087 195.6268 15.09613823681278
UWE-3                   
1 39446U 13066AG  26178.84298129  .00003532  00000+0  30476-3 0  9994
2 39446  97.8711 134.9896 0046857 284.9511  74.6525 14.97108273679172
BRITE-CA1 (TORONTO)     
1 40020U 14033L   26178.84094102  .00000860  00000+0  13684-3 0  9997
2 40020  97.9750 307.5731 0077379 242.3094 117.0247 14.72692615643781
DUCHIFAT-1              
1 40021U 14033M   26178.88715590  .00115475  00000+0  10822-2 0  9992
2 40021  98.0448 239.5673 0000743 102.2255 257.9087 15.66842534657424
NANOSATC-BR1            
1 40024U 14033Q   26178.07067232  .00017817  00000+0  58279-3 0  9999
2 40024  98.0720 211.3356 0005075 138.8301 221.3322 15.31766053655491
QB50P1                  
1 40025U 14033R   26178.82638487  .00008075  00000+0  39562-3 0  9999
2 40025  98.0961 190.7191 0008927 177.6408 182.4868 15.18417330654648
QB50P2                  
1 40032U 14033Y   26178.73228923  .00007132  00000+0  38237-3 0  9998
2 40032  98.0750 176.2695 0008908 132.0736 228.1254 15.15290863654260
PERSEUS-M2              
1 40037U 14033AD  26178.90211065  .00001279  00000+0  12083-3 0  9998
2 40037  97.9972 129.6616 0010089 265.2690  94.7378 14.95545374652387
